STARLINK-32777          
1 62525U 25004Q   26032.91716361  .00026904  00000+0  98265-3 0  9991
2 62525  43.0014  62.2456 0000419 225.5365 134.5452 15.27612532 60982
STARLINK-32741          
1 62526U 25004R   26032.05607070  .00020562  00000+0  75427-3 0  9992
2 62526  43.0002  63.4990 0001158 273.1792  86.8927 15.27596977 60890
STARLINK-32754          
1 62527U 25004S   26032.56581459  .00020717  00000+0  75927-3 0  9998
2 62527  42.9980  63.9033 0001138 272.7538  87.3183 15.27622412 59980
STARLINK-32786          
1 62528U 25004T   26032.79396088  .00012662  00000+0  46867-3 0  9997
2 62528  43.0031  62.1777 0000463 343.4215  16.6621 15.27592928 60021
STARLINK-32789          
1 62529U 25004U   26032.76839994  .00028977  00000+0  10572-2 0  9992
2 62529  42.9977  62.8371 0001616 294.3795  65.6888 15.27617292 60968
STARLINK-32791          
1 62530U 25004V   26032.42733783  .00021595  00000+0  79115-3 0  9994
2 62530  43.0003  64.5797 0001423 265.6585  94.4104 15.27613624 60918
STARLINK-32785          
1 62531U 25004W   26032.12225444  .00019334  00000+0  71018-3 0  9994
2 62531  43.0000  66.6018 0001350 268.7747  91.2950 15.27583048 60862
STARLINK-11538 [DTC]    
1 62554U 25006A   26032.93820035  .00323155  00000+0  24057-2 0  9996
2 62554  42.9987 355.0360 0001569 226.6222 133.4516 15.71033673 60980
STARLINK-11534 [DTC]    
1 62555U 25006B   26032.94351016  .00262843  00000+0  19874-2 0  9993
2 62555  42.9993 355.0773 0001126 290.4972  69.5775 15.70845055 60986
STARLINK-11515 [DTC]    
1 62556U 25006C   26032.35015974  .00192963  00000+0  14706-2 0  9993
2 62556  42.9966 359.2517 0000286 106.7983 253.2916 15.70872468 60882
STARLINK-11478 [DTC]    
1 62557U 25006D   26032.91668981 -.00006123  00000+0 -44268-4 0  9990
2 62557  43.0004 355.5380 0001565 241.0496 206.9268 15.70831554  5883
STARLINK-11358 [DTC]    
1 62558U 25006E   26032.91668981 -.00037692  00000+0 -29134-3 0  9990
2 62558  43.0005 355.4631 0001322 260.7936 217.2281 15.70859485  6032
STARLINK-11517 [DTC]    
1 62559U 25006F   26032.90647271  .00033206  00000+0  26091-3 0  9993
2 62559  43.0001 355.6731 0002241 299.4942  60.5702 15.70868786 60973
STARLINK-11519 [DTC]    
1 62560U 25006G   26032.29279366  .00251577  00000+0  18991-2 0  9995
2 62560  42.9993 359.6837 0001559 289.7433  70.3266 15.70918027 60879
STARLINK-11451 [DTC]    
1 62561U 25006H   26032.37656994  .00167880  00000+0  12833-2 0  9993
2 62561  42.9999 358.5665 0001491 248.8892 111.1816 15.70881895 60892
STARLINK-11530 [DTC]    
1 62562U 25006J   26032.29188130  .00151630  00000+0  11619-2 0  9994
2 62562  42.9996 359.6749 0001357 270.7726  89.2986 15.70877080 60878
