[{"OBJECT_NAME":"STARLINK-32777","OBJECT_ID":"2025-004Q","EPOCH":"2026-02-01T22:00:42.935904","MEAN_MOTION":15.27612532,"ECCENTRICITY":4.193e-5,"INCLINATION":43.0014,"RA_OF_ASC_NODE":62.2456,"ARG_OF_PERICENTER":225.5365,"MEAN_ANOMALY":134.5452,"EPHEMERIS_TYPE":0,"CLASSIFICATION_TYPE":"U","NORAD_CAT_ID":62525,"ELEMENT_SET_NO":999,"REV_AT_EPOCH":6098,"BSTAR":0.00098265281,"MEAN_MOTION_DOT":0.00026904,"MEAN_MOTION_DDOT":0},{"OBJECT_NAME":"STARLINK-32741","OBJECT_ID":"2025-004R","EPOCH":"2026-02-01T01:20:44.508480","MEAN_MOTION":15.27596977,"ECCENTRICITY":0.00011585,"INCLINATION":43.0002,"RA_OF_ASC_NODE":63.499,"ARG_OF_PERICENTER":273.1792,"MEAN_ANOMALY":86.8927,"EPHEMERIS_TYPE":0,"CLASSIFICATION_TYPE":"U","NORAD_CAT_ID":62526,"ELEMENT_SET_NO":999,"REV_AT_EPOCH":6089,"BSTAR":0.00075426526,"MEAN_MOTION_DOT":0.00020562,"MEAN_MOTION_DDOT":0},{"OBJECT_NAME":"STARLINK-32754","OBJECT_ID":"2025-004S","EPOCH":"2026-02-01T13:34:46.380576","MEAN_MOTION":15.27622412,"ECCENTRICITY":0.00011384,"INCLINATION":42.998,"RA_OF_ASC_NODE":63.9033,"ARG_OF_PERICENTER":272.7538,"MEAN_ANOMALY":87.3183,"EPHEMERIS_TYPE":0,"CLASSIFICATION_TYPE":"U","NORAD_CAT_ID":62527,"ELEMENT_SET_NO":999,"REV_AT_EPOCH":5998,"BSTAR":0.00075926675,"MEAN_MOTION_DOT":0.00020717,"MEAN_MOTION_DDOT":0},{"OBJECT_NAME":"STARLINK-32786","OBJECT_ID":"2025-004T","EPOCH":"2026-02-01T19:03:18.220032","MEAN_MOTION":15.27592928,"ECCENTRICITY":4.637e-5,"INCLINATION":43.0031,"RA_OF_ASC_NODE":62.1777,"ARG_OF_PERICENTER":343.4215,"MEAN_ANOMALY":16.6621,"EPHEMERIS_TYPE":0,"CLASSIFICATION_TYPE":"U","NORAD_CAT_ID":62528,"ELEMENT_SET_NO":999,"REV_AT_EPOCH":6002,"BSTAR":0.0004686724,"MEAN_MOTION_DOT":0.00012662,"MEAN_MOTION_DDOT":0},{"OBJECT_NAME":"STARLINK-32789","OBJECT_ID":"2025-004U","EPOCH":"2026-02-01T18:26:29.754816","MEAN_MOTION":15.27617292,"ECCENTRICITY":0.00016167,"INCLINATION":42.9977,"RA_OF_ASC_NODE":62.8371,"ARG_OF_PERICENTER":294.3795,"MEAN_ANOMALY":65.6888,"EPHEMERIS_TYPE":0,"CLASSIFICATION_TYPE":"U","NORAD_CAT_ID":62529,"ELEMENT_SET_NO":999,"REV_AT_EPOCH":6096,"BSTAR":0.0010571906,"MEAN_MOTION_DOT":0.00028977,"MEAN_MOTION_DDOT":0},{"OBJECT_NAME":"STARLINK-32791","OBJECT_ID":"2025-004V","EPOCH":"2026-02-01T10:15:21.988512","MEAN_MOTION":15.27613624,"ECCENTRICITY":0.00014236,"INCLINATION":43.0003,"RA_OF_ASC_NODE":64.5797,"ARG_OF_PERICENTER":265.6585,"MEAN_ANOMALY":94.4104,"EPHEMERIS_TYPE":0,"CLASSIFICATION_TYPE":"U","NORAD_CAT_ID":62530,"ELEMENT_SET_NO":999,"REV_AT_EPOCH":6091,"BSTAR":0.00079115306,"MEAN_MOTION_DOT":0.00021595,"MEAN_MOTION_DDOT":0},{"OBJECT_NAME":"STARLINK-32785","OBJECT_ID":"2025-004W","EPOCH":"2026-02-01T02:56:02.783616","MEAN_MOTION":15.27583048,"ECCENTRICITY":0.00013502,"INCLINATION":43,"RA_OF_ASC_NODE":66.6018,"ARG_OF_PERICENTER":268.7747,"MEAN_ANOMALY":91.295,"EPHEMERIS_TYPE":0,"CLASSIFICATION_TYPE":"U","NORAD_CAT_ID":62531,"ELEMENT_SET_NO":999,"REV_AT_EPOCH":6086,"BSTAR":0.00071018487,"MEAN_MOTION_DOT":0.00019334,"MEAN_MOTION_DDOT":0},{"OBJECT_NAME":"STARLINK-11538 [DTC]","OBJECT_ID":"2025-006A","EPOCH":"2026-02-01T22:31:00.510240","MEAN_MOTION":15.71033673,"ECCENTRICITY":0.0001569,"INCLINATION":42.9987,"RA_OF_ASC_NODE":355.036,"ARG_OF_PERICENTER":226.6222,"MEAN_ANOMALY":133.4516,"EPHEMERIS_TYPE":0,"CLASSIFICATION_TYPE":"U","NORAD_CAT_ID":62554,"ELEMENT_SET_NO":999,"REV_AT_EPOCH":6098,"BSTAR":0.0024056547,"MEAN_MOTION_DOT":0.00323155,"MEAN_MOTION_DDOT":0},{"OBJECT_NAME":"STARLINK-11534 [DTC]","OBJECT_ID":"2025-006B","EPOCH":"2026-02-01T22:38:39.277824","MEAN_MOTION":15.70845055,"ECCENTRICITY":0.00011265,"INCLINATION":42.9993,"RA_OF_ASC_NODE":355.0773,"ARG_OF_PERICENTER":290.4972,"MEAN_ANOMALY":69.5775,"EPHEMERIS_TYPE":0,"CLASSIFICATION_TYPE":"U","NORAD_CAT_ID":62555,"ELEMENT_SET_NO":999,"REV_AT_EPOCH":6098,"BSTAR":0.001987353,"MEAN_MOTION_DOT":0.00262843,"MEAN_MOTION_DDOT":0},{"OBJECT_NAME":"STARLINK-11515 [DTC]","OBJECT_ID":"2025-006C","EPOCH":"2026-02-01T08:24:13.801536","MEAN_MOTION":15.70872468,"ECCENTRICITY":2.869e-5,"INCLINATION":42.9966,"RA_OF_ASC_NODE":359.2517,"ARG_OF_PERICENTER":106.7983,"MEAN_ANOMALY":253.2916,"EPHEMERIS_TYPE":0,"CLASSIFICATION_TYPE":"U","NORAD_CAT_ID":62556,"ELEMENT_SET_NO":999,"REV_AT_EPOCH":6088,"BSTAR":0.0014706095,"MEAN_MOTION_DOT":0.00192963,"MEAN_MOTION_DDOT":0},{"OBJECT_NAME":"STARLINK-11478 [DTC]","OBJECT_ID":"2025-006D","EPOCH":"2026-02-01T22:00:01.999584","MEAN_MOTION":15.70831554,"ECCENTRICITY":0.00015652,"INCLINATION":43.0004,"RA_OF_ASC_NODE":355.538,"ARG_OF_PERICENTER":241.0496,"MEAN_ANOMALY":206.9268,"EPHEMERIS_TYPE":0,"CLASSIFICATION_TYPE":"U","NORAD_CAT_ID":62557,"ELEMENT_SET_NO":999,"REV_AT_EPOCH":588,"BSTAR":-4.4268433e-5,"MEAN_MOTION_DOT":-6.123e-5,"MEAN_MOTION_DDOT":0},{"OBJECT_NAME":"STARLINK-11358 [DTC]","OBJECT_ID":"2025-006E","EPOCH":"2026-02-01T22:00:01.999584","MEAN_MOTION":15.70859485,"ECCENTRICITY":0.00013221,"INCLINATION":43.0005,"RA_OF_ASC_NODE":355.4631,"ARG_OF_PERICENTER":260.7936,"MEAN_ANOMALY":217.2281,"EPHEMERIS_TYPE":0,"CLASSIFICATION_TYPE":"U","NORAD_CAT_ID":62558,"ELEMENT_SET_NO":999,"REV_AT_EPOCH":603,"BSTAR":-0.00029133624,"MEAN_MOTION_DOT":-0.00037692,"MEAN_MOTION_DDOT":0},{"OBJECT_NAME":"STARLINK-11517 [DTC]","OBJECT_ID":"2025-006F","EPOCH":"2026-02-01T21:45:19.242144","MEAN_MOTION":15.70868786,"ECCENTRICITY":0.0002241,"INCLINATION":43.0001,"RA_OF_ASC_NODE":355.6731,"ARG_OF_PERICENTER":299.4942,"MEAN_ANOMALY":60.5702,"EPHEMERIS_TYPE":0,"CLASSIFICATION_TYPE":"U","NORAD_CAT_ID":62559,"ELEMENT_SET_NO":999,"REV_AT_EPOCH":6097,"BSTAR":0.00026091418,"MEAN_MOTION_DOT":0.00033206,"MEAN_MOTION_DDOT":0},{"OBJECT_NAME":"STARLINK-11519 [DTC]","OBJECT_ID":"2025-006G","EPOCH":"2026-02-01T07:01:37.372224","MEAN_MOTION":15.70918027,"ECCENTRICITY":0.00015596,"INCLINATION":42.9993,"RA_OF_ASC_NODE":359.6837,"ARG_OF_PERICENTER":289.7433,"MEAN_ANOMALY":70.3266,"EPHEMERIS_TYPE":0,"CLASSIFICATION_TYPE":"U","NORAD_CAT_ID":62560,"ELEMENT_SET_NO":999,"REV_AT_EPOCH":6087,"BSTAR":0.0018991164,"MEAN_MOTION_DOT":0.00251577,"MEAN_MOTION_DDOT":0},{"OBJECT_NAME":"STARLINK-11451 [DTC]","OBJECT_ID":"2025-006H","EPOCH":"2026-02-01T09:02:15.642816","MEAN_MOTION":15.70881895,"ECCENTRICITY":0.00014915,"INCLINATION":42.9999,"RA_OF_ASC_NODE":358.5665,"ARG_OF_PERICENTER":248.8892,"MEAN_ANOMALY":111.1816,"EPHEMERIS_TYPE":0,"CLASSIFICATION_TYPE":"U","NORAD_CAT_ID":62561,"ELEMENT_SET_NO":999,"REV_AT_EPOCH":6089,"BSTAR":0.0012833093,"MEAN_MOTION_DOT":0.0016788,"MEAN_MOTION_DDOT":0},{"OBJECT_NAME":"STARLINK-11530 [DTC]","OBJECT_ID":"2025-006J","EPOCH":"2026-02-01T07:00:18.544320","MEAN_MOTION":15.7087708,"ECCENTRICITY":0.00013571,"INCLINATION":42.9996,"RA_OF_ASC_NODE":359.6749,"ARG_OF_PERICENTER":270.7726,"MEAN_ANOMALY":89.2986,"EPHEMERIS_TYPE":0,"CLASSIFICATION_TYPE":"U","NORAD_CAT_ID":62562,"ELEMENT_SET_NO":999,"REV_AT_EPOCH":6087,"BSTAR":0.0011619465,"MEAN_MOTION_DOT":0.0015163,"MEAN_MOTION_DDOT":0}]
